start=new Date('2022-08-30T00:00:00.000Z').valueOf();
sats=[{"CLASSIFICATION_TYPE":"U","APOAPSIS":"548.252","PERIOD":"95.592","COUNTRY_CODE":"US","TIME_SYSTEM":"UTC","PERIAPSIS":"546.142","SEMIMAJOR_AXIS":"6925.332","MEAN_MOTION_DOT":"-0.00000198","BSTAR":"0.00000562900000","REV_AT_EPOCH":"8210","OBJECT_ID":"2021-018BD","LAUNCH_DATE":"2021-03-11","EPOCH":"2022-08-29T12:18:36.828000","RA_OF_ASC_NODE":"274.4801","MEAN_MOTION_DDOT":"0.0000000000000","NORAD_CAT_ID":"47838","OBJECT_TYPE":"PAYLOAD","OBJECT_NAME":"STARLINK-2429","ARG_OF_PERICENTER":"60.7901","MEAN_ANOMALY":"299.3240","RCS_SIZE":"MEDIUM","GP_ID":"211260161","ECCENTRICITY":"0.00015230","TLE_LINE2":"2 47838  53.0545 274.4801 0001523  60.7901 299.3240 15.06405431 82103","SITE":"AFETR","MEAN_MOTION":"15.06405431","DECAY_DATE":null,"TLE_LINE1":"1 47838U 21018BD  22241.51292625 -.00000198  00000-0  56290-5 0  9991","EPHEMERIS_TYPE":"0","CENTER_NAME":"EARTH","MEAN_ELEMENT_THEORY":"SGP4","REF_FRAME":"TEME","ELEMENT_SET_NO":"999","INCLINATION":"53.0545","FILE":"3550887"},{"PERIAPSIS":"546.245","SEMIMAJOR_AXIS":"6925.350","MEAN_MOTION_DOT":"0.00000469","BSTAR":"0.00005039700000","REV_AT_EPOCH":"8290","OBJECT_ID":"2021-018BE","EPOCH":"2022-08-29T17:46:22.273248","LAUNCH_DATE":"2021-03-11","RA_OF_ASC_NODE":"243.4343","MEAN_MOTION_DDOT":"0.0000000000000","OBJECT_TYPE":"PAYLOAD","NORAD_CAT_ID":"47839","CLASSIFICATION_TYPE":"U","APOAPSIS":"548.184","PERIOD":"95.592","COUNTRY_CODE":"US","TIME_SYSTEM":"UTC","SITE":"AFETR","DECAY_DATE":null,"MEAN_MOTION":"15.06399558","TLE_LINE1":"1 47839U 21018BE  22241.74053557  .00000469  00000-0  50397-4 0  9997","CENTER_NAME":"EARTH","EPHEMERIS_TYPE":"0","MEAN_ELEMENT_THEORY":"SGP4","REF_FRAME":"TEME","ELEMENT_SET_NO":"999","INCLINATION":"53.0538","FILE":"3551093","OBJECT_NAME":"STARLINK-2431","ARG_OF_PERICENTER":"70.2058","MEAN_ANOMALY":"289.9082","RCS_SIZE":"LARGE","ECCENTRICITY":"0.00014000","GP_ID":"211286329","TLE_LINE2":"2 47839  53.0538 243.4343 0001400  70.2058 289.9082 15.06399558 82905"},{"RCS_SIZE":"LARGE","ARG_OF_PERICENTER":"69.0587","MEAN_ANOMALY":"291.0571","OBJECT_NAME":"STARLINK-2432","ECCENTRICITY":"0.00015810","GP_ID":"211287079","TLE_LINE2":"2 47840  53.0538 253.4134 0001581  69.0587 291.0571 15.06396655 82754","EPHEMERIS_TYPE":"0","CENTER_NAME":"EARTH","ELEMENT_SET_NO":"999","MEAN_ELEMENT_THEORY":"SGP4","REF_FRAME":"TEME","SITE":"AFETR","TLE_LINE1":"1 47840U 21018BF  22241.75067955  .00000094  00000-0  25215-4 0  9992","MEAN_MOTION":"15.06396655","DECAY_DATE":null,"INCLINATION":"53.0538","FILE":"3551093","APOAPSIS":"548.319","CLASSIFICATION_TYPE":"U","TIME_SYSTEM":"UTC","PERIOD":"95.592","COUNTRY_CODE":"US","OBJECT_ID":"2021-018BF","SEMIMAJOR_AXIS":"6925.359","PERIAPSIS":"546.129","BSTAR":"0.00002521500000","REV_AT_EPOCH":"8275","MEAN_MOTION_DOT":"0.00000094","NORAD_CAT_ID":"47840","OBJECT_TYPE":"PAYLOAD","LAUNCH_DATE":"2021-03-11","RA_OF_ASC_NODE":"253.4134","EPOCH":"2022-08-29T18:00:58.713120","MEAN_MOTION_DDOT":"0.0000000000000"},{"FILE":"3551093","INCLINATION":"53.0540","MEAN_ELEMENT_THEORY":"SGP4","REF_FRAME":"TEME","ELEMENT_SET_NO":"999","EPHEMERIS_TYPE":"0","CENTER_NAME":"EARTH","DECAY_DATE":null,"MEAN_MOTION":"15.06383890","TLE_LINE1":"1 47841U 21018BG  22241.61431085 -.00002024  00000-0 -11709-3 0  9996","SITE":"AFETR","TLE_LINE2":"2 47841  53.0540 254.0258 0000806  92.7698 267.3383 15.06383890 82739","ECCENTRICITY":"0.00008060","GP_ID":"211285827","RCS_SIZE":"LARGE","OBJECT_NAME":"STARLINK-2433","ARG_OF_PERICENTER":"92.7698","MEAN_ANOMALY":"267.3383","OBJECT_TYPE":"PAYLOAD","NORAD_CAT_ID":"47841","MEAN_MOTION_DDOT":"0.0000000000000","LAUNCH_DATE":"2021-03-11","EPOCH":"2022-08-29T14:44:36.457440","RA_OF_ASC_NODE":"254.0258","OBJECT_ID":"2021-018BG","MEAN_MOTION_DOT":"-0.00002024","BSTAR":"-0.00011709000000","REV_AT_EPOCH":"8273","PERIAPSIS":"546.705","SEMIMAJOR_AXIS":"6925.398","TIME_SYSTEM":"UTC","COUNTRY_CODE":"US","PERIOD":"95.593","APOAPSIS":"547.821","CLASSIFICATION_TYPE":"U"},{"MEAN_MOTION_DDOT":"0.0000000000000","LAUNCH_DATE":"2021-03-11","RA_OF_ASC_NODE":"284.3774","EPOCH":"2022-08-29T12:49:08.401728","OBJECT_TYPE":"PAYLOAD","NORAD_CAT_ID":"47842","REV_AT_EPOCH":"8235","BSTAR":"0.00000532450000","MEAN_MOTION_DOT":"-0.00000202","SEMIMAJOR_AXIS":"6925.359","PERIAPSIS":"546.232","OBJECT_ID":"2021-018BH","COUNTRY_CODE":"US","PERIOD":"95.592","TIME_SYSTEM":"UTC","CLASSIFICATION_TYPE":"U","APOAPSIS":"548.217","FILE":"3550737","INCLINATION":"53.0546","TLE_LINE1":"1 47842U 21018BH  22241.53412502 -.00000202  00000-0  53245-5 0  9999","MEAN_MOTION":"15.06396544","DECAY_DATE":null,"SITE":"AFETR","ELEMENT_SET_NO":"999","MEAN_ELEMENT_THEORY":"SGP4","REF_FRAME":"TEME","EPHEMERIS_TYPE":"0","CENTER_NAME":"EARTH","TLE_LINE2":"2 47842  53.0546 284.3774 0001433  59.9812 300.1319 15.06396544 82358","GP_ID":"211254247","ECCENTRICITY":"0.00014330","MEAN_ANOMALY":"300.1319","ARG_OF_PERICENTER":"59.9812","OBJECT_NAME":"STARLINK-2434","RCS_SIZE":"LARGE"},{"ELEMENT_SET_NO":"999","MEAN_ELEMENT_THEORY":"SGP4","REF_FRAME":"TEME","EPHEMERIS_TYPE":"0","CENTER_NAME":"EARTH","TLE_LINE1":"1 47843U 21018BJ  22241.57328493  .00000651  00000-0  62581-4 0  9998","DECAY_DATE":null,"MEAN_MOTION":"15.06399750","SITE":"AFETR","FILE":"3551093","INCLINATION":"53.0544","RCS_SIZE":"LARGE","MEAN_ANOMALY":"295.4871","ARG_OF_PERICENTER":"64.6263","OBJECT_NAME":"STARLINK-2435","TLE_LINE2":"2 47843  53.0544 279.2098 0001408  64.6263 295.4871 15.06399750 82399","GP_ID":"211286829","ECCENTRICITY":"0.00014080","OBJECT_ID":"2021-018BJ","BSTAR":"0.00006258100000","REV_AT_EPOCH":"8239","MEAN_MOTION_DOT":"0.00000651","SEMIMAJOR_AXIS":"6925.349","PERIAPSIS":"546.239","OBJECT_TYPE":"PAYLOAD","NORAD_CAT_ID":"47843","MEAN_MOTION_DDOT":"0.0000000000000","RA_OF_ASC_NODE":"279.2098","LAUNCH_DATE":"2021-03-11","EPOCH":"2022-08-29T13:45:31.817952","APOAPSIS":"548.189","CLASSIFICATION_TYPE":"U","TIME_SYSTEM":"UTC","COUNTRY_CODE":"US","PERIOD":"95.592"},{"ELEMENT_SET_NO":"999","MEAN_ELEMENT_THEORY":"SGP4","REF_FRAME":"TEME","CENTER_NAME":"EARTH","EPHEMERIS_TYPE":"0","TLE_LINE1":"1 47844U 21018BK  22241.37286417 -.00000142  00000-0  93808-5 0  9999","MEAN_MOTION":"15.06399545","DECAY_DATE":null,"SITE":"AFETR","FILE":"3550737","INCLINATION":"53.0542","RCS_SIZE":"LARGE","MEAN_ANOMALY":"292.0675","ARG_OF_PERICENTER":"68.0447","OBJECT_NAME":"STARLINK-2446","TLE_LINE2":"2 47844  53.0542 275.1089 0001253  68.0447 292.0675 15.06399545 82413","ECCENTRICITY":"0.00012530","GP_ID":"211253246","OBJECT_ID":"2021-018BK","REV_AT_EPOCH":"8241","BSTAR":"0.00000938080000","MEAN_MOTION_DOT":"-0.00000142","SEMIMAJOR_AXIS":"6925.350","PERIAPSIS":"546.347","OBJECT_TYPE":"PAYLOAD","NORAD_CAT_ID":"47844","MEAN_MOTION_DDOT":"0.0000000000000","EPOCH":"2022-08-29T08:56:55.464288","LAUNCH_DATE":"2021-03-11","RA_OF_ASC_NODE":"275.1089","APOAPSIS":"548.083","CLASSIFICATION_TYPE":"U","TIME_SYSTEM":"UTC","COUNTRY_CODE":"US","PERIOD":"95.592"},{"TIME_SYSTEM":"UTC","COUNTRY_CODE":"US","PERIOD":"95.592","APOAPSIS":"548.097","CLASSIFICATION_TYPE":"U","NORAD_CAT_ID":"47845","OBJECT_TYPE":"PAYLOAD","MEAN_MOTION_DDOT":"0.0000000000000","RA_OF_ASC_NODE":"275.3170","LAUNCH_DATE":"2021-03-11","EPOCH":"2022-08-29T07:47:55.151232","OBJECT_ID":"2021-018BL","BSTAR":"0.00007641100000","REV_AT_EPOCH":"8241","MEAN_MOTION_DOT":"0.00000857","SEMIMAJOR_AXIS":"6925.349","PERIAPSIS":"546.331","TLE_LINE2":"2 47845  53.0541 275.3170 0001275  83.5458 276.5676 15.06399758 82418","GP_ID":"211253496","ECCENTRICITY":"0.00012750","RCS_SIZE":"LARGE","MEAN_ANOMALY":"276.5676","ARG_OF_PERICENTER":"83.5458","OBJECT_NAME":"STARLINK-2453","FILE":"3550737","INCLINATION":"53.0541","ELEMENT_SET_NO":"999","MEAN_ELEMENT_THEORY":"SGP4","REF_FRAME":"TEME","EPHEMERIS_TYPE":"0","CENTER_NAME":"EARTH","TLE_LINE1":"1 47845U 21018BL  22241.32494388  .00000857  00000-0  76411-4 0  9995","DECAY_DATE":null,"MEAN_MOTION":"15.06399758","SITE":"AFETR"},{"OBJECT_NAME":"STARLINK-2456","MEAN_ANOMALY":"285.0808","ARG_OF_PERICENTER":"75.0328","RCS_SIZE":"LARGE","ECCENTRICITY":"0.00013230","GP_ID":"211286078","TLE_LINE2":"2 47846  53.0554 273.2499 0001323  75.0328 285.0808 15.06404671 82536","SITE":"AFETR","DECAY_DATE":null,"MEAN_MOTION":"15.06404671","TLE_LINE1":"1 47846U 21018BM  22241.78474296  .00000152  00000-0  29077-4 0  9996","CENTER_NAME":"EARTH","EPHEMERIS_TYPE":"0","MEAN_ELEMENT_THEORY":"SGP4","REF_FRAME":"TEME","ELEMENT_SET_NO":"999","INCLINATION":"53.0554","FILE":"3551093","CLASSIFICATION_TYPE":"U","APOAPSIS":"548.115","PERIOD":"95.592","COUNTRY_CODE":"US","TIME_SYSTEM":"UTC","PERIAPSIS":"546.283","SEMIMAJOR_AXIS":"6925.334","MEAN_MOTION_DOT":"0.00000152","REV_AT_EPOCH":"8253","BSTAR":"0.00002907700000","OBJECT_ID":"2021-018BM","LAUNCH_DATE":"2021-03-11","EPOCH":"2022-08-29T18:50:01.791744","RA_OF_ASC_NODE":"273.2499","MEAN_MOTION_DDOT":"0.0000000000000","NORAD_CAT_ID":"47846","OBJECT_TYPE":"PAYLOAD"},{"RCS_SIZE":"LARGE","MEAN_ANOMALY":"259.1120","ARG_OF_PERICENTER":"100.9998","OBJECT_NAME":"STARLINK-2258","ECCENTRICITY":"0.00011430","GP_ID":"211252747","TLE_LINE2":"2 47860  53.0543 305.0054 0001143 100.9998 259.1120 15.06401432 81778","EPHEMERIS_TYPE":"0","CENTER_NAME":"EARTH","ELEMENT_SET_NO":"999","REF_FRAME":"TEME","MEAN_ELEMENT_THEORY":"SGP4","SITE":"AFETR","TLE_LINE1":"1 47860U 21021A   22241.39221180  .00001138  00000-0  95302-4 0  9994","MEAN_MOTION":"15.06401432","DECAY_DATE":null,"INCLINATION":"53.0543","FILE":"3550737","APOAPSIS":"548.001","CLASSIFICATION_TYPE":"U","TIME_SYSTEM":"UTC","PERIOD":"95.592","COUNTRY_CODE":"US","OBJECT_ID":"2021-021A","SEMIMAJOR_AXIS":"6925.344","PERIAPSIS":"546.418","REV_AT_EPOCH":"8177","BSTAR":"0.00009530200000","MEAN_MOTION_DOT":"0.00001138","NORAD_CAT_ID":"47860","OBJECT_TYPE":"PAYLOAD","EPOCH":"2022-08-29T09:24:47.099520","LAUNCH_DATE":"2021-03-14","RA_OF_ASC_NODE":"305.0054","MEAN_MOTION_DDOT":"0.0000000000000"}];
